{
  "type": "FeatureCollection",
  "features": [
    {
      "type": "Feature",
      "properties": {
        "norad_id": 36269,
        "name": "FENGYUN 1C DEB",
        "group": "fengyun-1c-debris",
        "lat": 79.36449793635836,
        "lon": -140.83756751709015,
        "alt_km": 910.1359971784777,
        "timestamp": "2025-12-02T07:10:09.403749+00:00",
        "meta_object_name": "FENGYUN 1C DEB",
        "meta_object_id": "1999-025DWW",
        "meta_epoch": "2025-12-01T13:56:45.691296",
        "meta_mean_motion": 14.26937631,
        "meta_eccentricity": 0.02337858,
        "meta_inclination": 99.1061,
        "meta_ra_of_asc_node": 277.0743,
        "meta_arg_of_pericenter": 312.1017,
        "meta_mean_anomaly": 46.0492,
        "meta_ephemeris_type": 0,
        "meta_classification_type": "U",
        "meta_norad_cat_id": 36269,
        "meta_element_set_no": 999,
        "meta_rev_at_epoch": 87557,
        "meta_bstar": 0.0011932552,
        "meta_mean_motion_dot": 3.82e-05,
        "meta_mean_motion_ddot": 0,
        "tle_line1": "1 36269U 99025DWW 25335.58108439  .00003820  00000+0  11933-2 0  9998",
        "tle_line2": "2 36269  99.1061 277.0743 0233785 312.1017  46.0492 14.26937631875576"
      },
      "geometry": {
        "type": "Point",
        "coordinates": [
          -140.83756751709015,
          79.36449793635836
        ]
      }
    },
    {
      "type": "Feature",
      "properties": {
        "norad_id": 36272,
        "name": "FENGYUN 1C DEB",
        "group": "fengyun-1c-debris",
        "lat": 6.226499676121409,
        "lon": 33.291388039986685,
        "alt_km": 904.0737473359195,
        "timestamp": "2025-12-02T07:10:09.403759+00:00",
        "meta_object_name": "FENGYUN 1C DEB",
        "meta_object_id": "1999-025DWZ",
        "meta_epoch": "2025-11-16T09:05:49.301376",
        "meta_mean_motion": 14.17162339,
        "meta_eccentricity": 0.01691484,
        "meta_inclination": 99.1396,
        "meta_ra_of_asc_node": 195.9187,
        "meta_arg_of_pericenter": 342.9224,
        "meta_mean_anomaly": 16.6299,
        "meta_ephemeris_type": 0,
        "meta_classification_type": "U",
        "meta_norad_cat_id": 36272,
        "meta_element_set_no": 999,
        "meta_rev_at_epoch": 63243,
        "meta_bstar": 0.00092343066,
        "meta_mean_motion_dot": 2.094e-05,
        "meta_mean_motion_ddot": 0,
        "tle_line1": "1 36272U 99025DWZ 25320.37904284  .00002094  00000+0  92343-3 0  9992",
        "tle_line2": "2 36272  99.1396 195.9187 0169148 342.9224  16.6299 14.17162339632432"
      },
      "geometry": {
        "type": "Point",
        "coordinates": [
          33.291388039986685,
          6.226499676121409
        ]
      }
    },
    {
      "type": "Feature",
      "properties": {
        "norad_id": 36273,
        "name": "FENGYUN 1C DEB",
        "group": "fengyun-1c-debris",
        "lat": -3.0162483815161303,
        "lon": 24.413226865019716,
        "alt_km": 908.511949066683,
        "timestamp": "2025-12-02T07:10:09.403769+00:00",
        "meta_object_name": "FENGYUN 1C DEB",
        "meta_object_id": "1999-025DXA",
        "meta_epoch": "2025-11-02T21:06:05.135904",
        "meta_mean_motion": 14.1649612,
        "meta_eccentricity": 0.0097486,
        "meta_inclination": 99.6087,
        "meta_ra_of_asc_node": 173.189,
        "meta_arg_of_pericenter": 98.9958,
        "meta_mean_anomaly": 262.2262,
        "meta_ephemeris_type": 0,
        "meta_classification_type": "U",
        "meta_norad_cat_id": 36273,
        "meta_element_set_no": 999,
        "meta_rev_at_epoch": 65669,
        "meta_bstar": 0.00031090406,
        "meta_mean_motion_dot": 5.98e-06,
        "meta_mean_motion_ddot": 0,
        "tle_line1": "1 36273U 99025DXA 25306.87922611  .00000598  00000+0  31090-3 0  9995",
        "tle_line2": "2 36273  99.6087 173.1890 0097486  98.9958 262.2262 14.16496120656691"
      },
      "geometry": {
        "type": "Point",
        "coordinates": [
          24.413226865019716,
          -3.0162483815161303
        ]
      }
    },
    {
      "type": "Feature",
      "properties": {
        "norad_id": 36274,
        "name": "FENGYUN 1C DEB",
        "group": "fengyun-1c-debris",
        "lat": -55.79707510025198,
        "lon": 63.758943804103914,
        "alt_km": 789.1351481021975,
        "timestamp": "2025-12-02T07:10:09.403779+00:00",
        "meta_object_name": "FENGYUN 1C DEB",
        "meta_object_id": "1999-025DXB",
        "meta_epoch": "2025-12-01T11:15:57.514752",
        "meta_mean_motion": 14.23229566,
        "meta_eccentricity": 0.00617312,
        "meta_inclination": 99.1394,
        "meta_ra_of_asc_node": 49.1975,
        "meta_arg_of_pericenter": 261.9313,
        "meta_mean_anomaly": 114.0627,
        "meta_ephemeris_type": 0,
        "meta_classification_type": "U",
        "meta_norad_cat_id": 36274,
        "meta_element_set_no": 999,
        "meta_rev_at_epoch": 62825,
        "meta_bstar": 0.0029611742,
        "meta_mean_motion_dot": 6.789e-05,
        "meta_mean_motion_ddot": 0,
        "tle_line1": "1 36274U 99025DXB 25335.46941568  .00006789  00000+0  29612-2 0  9999",
        "tle_line2": "2 36274  99.1394  49.1975 0061731 261.9313 114.0627 14.23229566628251"
      },
      "geometry": {
        "type": "Point",
        "coordinates": [
          63.758943804103914,
          -55.79707510025198
        ]
      }
    },
    {
      "type": "Feature",
      "properties": {
        "norad_id": 36278,
        "name": "FENGYUN 1C DEB",
        "group": "fengyun-1c-debris",
        "lat": 36.426769583856824,
        "lon": -112.49564241915888,
        "alt_km": 820.9714486235243,
        "timestamp": "2025-12-02T07:10:09.403789+00:00",
        "meta_object_name": "FENGYUN 1C DEB",
        "meta_object_id": "1999-025DXF",
        "meta_epoch": "2025-11-25T12:20:55.957056",
        "meta_mean_motion": 14.17329318,
        "meta_eccentricity": 0.00617636,
        "meta_inclination": 99.1226,
        "meta_ra_of_asc_node": 247.3547,
        "meta_arg_of_pericenter": 339.8905,
        "meta_mean_anomaly": 19.9836,
        "meta_ephemeris_type": 0,
        "meta_classification_type": "U",
        "meta_norad_cat_id": 36278,
        "meta_element_set_no": 999,
        "meta_rev_at_epoch": 93232,
        "meta_bstar": 0.00056943864,
        "meta_mean_motion_dot": 1.126e-05,
        "meta_mean_motion_ddot": 0,
        "tle_line1": "1 36278U 99025DXF 25329.51453654  .00001126  00000+0  56944-3 0  9995",
        "tle_line2": "2 36278  99.1226 247.3547 0061763 339.8905  19.9836 14.17329318932323"
      },
      "geometry": {
        "type": "Point",
        "coordinates": [
          -112.49564241915888,
          36.426769583856824
        ]
      }
    },
    {
      "type": "Feature",
      "properties": {
        "norad_id": 36279,
        "name": "FENGYUN 1C DEB",
        "group": "fengyun-1c-debris",
        "lat": 18.790978310901128,
        "lon": 137.67064561126458,
        "alt_km": 832.5264788489658,
        "timestamp": "2025-12-02T07:10:09.403799+00:00",
        "meta_object_name": "FENGYUN 1C DEB",
        "meta_object_id": "1999-025DXG",
        "meta_epoch": "2025-11-25T16:33:32.008320",
        "meta_mean_motion": 14.14714647,
        "meta_eccentricity": 0.00629921,
        "meta_inclination": 98.56,
        "meta_ra_of_asc_node": 308.3956,
        "meta_arg_of_pericenter": 103.3746,
        "meta_mean_anomaly": 257.4461,
        "meta_ephemeris_type": 0,
        "meta_classification_type": "U",
        "meta_norad_cat_id": 36279,
        "meta_element_set_no": 999,
        "meta_rev_at_epoch": 88798,
        "meta_bstar": 0.00016006279,
        "meta_mean_motion_dot": 2.73e-06,
        "meta_mean_motion_ddot": 0,
        "tle_line1": "1 36279U 99025DXG 25329.68995380  .00000273  00000+0  16006-3 0  9998",
        "tle_line2": "2 36279  98.5600 308.3956 0062992 103.3746 257.4461 14.14714647887981"
      },
      "geometry": {
        "type": "Point",
        "coordinates": [
          137.67064561126458,
          18.790978310901128
        ]
      }
    },
    {
      "type": "Feature",
      "properties": {
        "norad_id": 36280,
        "name": "FENGYUN 1C DEB",
        "group": "fengyun-1c-debris",
        "lat": 25.10451584769527,
        "lon": 1.416710145856971,
        "alt_km": 843.0331160737023,
        "timestamp": "2025-12-02T07:10:09.403809+00:00",
        "meta_object_name": "FENGYUN 1C DEB",
        "meta_object_id": "1999-025DXH",
        "meta_epoch": "2025-12-01T19:57:36.223200",
        "meta_mean_motion": 14.09684234,
        "meta_eccentricity": 0.0063727,
        "meta_inclination": 98.768,
        "meta_ra_of_asc_node": 5.1085,
        "meta_arg_of_pericenter": 96.1087,
        "meta_mean_anomaly": 81.1977,
        "meta_ephemeris_type": 0,
        "meta_classification_type": "U",
        "meta_norad_cat_id": 36280,
        "meta_element_set_no": 999,
        "meta_rev_at_epoch": 86200,
        "meta_bstar": 0.0010089,
        "meta_mean_motion_dot": 1.761e-05,
        "meta_mean_motion_ddot": 0,
        "tle_line1": "1 36280U 99025DXH 25335.83166925  .00001761  00000+0  10089-2 0  9996",
        "tle_line2": "2 36280  98.7680   5.1085 0063727  96.1087  81.1977 14.09684234862004"
      },
      "geometry": {
        "type": "Point",
        "coordinates": [
          1.416710145856971,
          25.10451584769527
        ]
      }
    }
  ]
}